SYMPHONIE 2             
1 08132U 75077A   26115.77058561 -.00000165  00000+0  00000+0 0  9995
2 08132   4.1734 275.2654 0005639  58.8253 319.9214  0.99985618141932
INTELSAT 4A-F1          
1 08330U 75091A   26115.71661994  .00000103  00000+0  00000+0 0  9996
2 08330   7.9815 304.6663 0003736 267.7063 294.7498  0.99926789120942
COSMOS 775              
1 08357U 75097A   26115.78996565  .00000123  00000+0  00000+0 0  9995
2 08357   2.4939 262.0366 0011075 179.9517 101.5381  1.00219069131237
GOES 1 (SMS-C)          
1 08366U 75100A   26115.61138704  .00000022  00000+0  00000+0 0  9993
2 08366   4.7412 278.1276 0004157   1.6477  27.9665  1.00250049184546
OPS 3165 (DSP 5)        
1 08482U 75118A   26115.78935897  .00000110  00000+0  00000+0 0  9995
2 08482   2.4265 259.3129 0033231  27.6425 253.6638  1.00485069 25926
RADUGA 1                
1 08513U 75123A   26115.79577234 -.00000094  00000+0  00000+0 0  9996
2 08513   2.9366 267.3334 0004153 294.9830  12.5098  1.00246480194285
TITAN 3C TRANSTAGE R/B  
1 08516U 75118C   26115.83838338 -.00000364  00000+0  00000+0 0  9993
2 08516   2.4036 259.6291 0011557 213.8794 145.7944  1.00549825 25256
CTS                     
1 08585U 76004A   26115.60297050 -.00000067  00000+0  00000+0 0  9999
2 08585   4.0650 272.7913 0011030 278.5497 129.3889  1.00201044121771
INTELSAT 4A-F2          
1 08620U 76010A   26115.48129884 -.00000225  00000+0  00000+0 0  9997
2 08620   8.0121 304.2609 0005703 313.7417  55.6926  0.99685847620091
LES-8                   
1 08746U 76023A   26115.33691619 -.00000123  00000+0  00000+0 0  9991
2 08746  22.2997  37.7050 0031808 157.6702  35.1520  1.00268792129157
LES-9                   
1 08747U 76023B   26115.35977791 -.00000130  00000+0  00000+0 0  9990
2 08747  22.2614  37.7168 0023464 181.3134  20.8472  1.00274493129147
