[{"OBJECT_NAME":"SYMPHONIE 2","OBJECT_ID":"1975-077A","EPOCH":"2026-04-25T18:29:38.596704","MEAN_MOTION":0.99985618,"ECCENTRICITY":0.0005639,"INCLINATION":4.1734,"RA_OF_ASC_NODE":275.2654,"ARG_OF_PERICENTER":58.8253,"MEAN_ANOMALY":319.9214,"EPHEMERIS_TYPE":0,"CLASSIFICATION_TYPE":"U","NORAD_CAT_ID":8132,"ELEMENT_SET_NO":999,"REV_AT_EPOCH":14193,"BSTAR":0,"MEAN_MOTION_DOT":-1.65e-6,"MEAN_MOTION_DDOT":0},{"OBJECT_NAME":"INTELSAT 4A-F1","OBJECT_ID":"1975-091A","EPOCH":"2026-04-25T17:11:55.962816","MEAN_MOTION":0.99926789,"ECCENTRICITY":0.0003736,"INCLINATION":7.9815,"RA_OF_ASC_NODE":304.6663,"ARG_OF_PERICENTER":267.7063,"MEAN_ANOMALY":294.7498,"EPHEMERIS_TYPE":0,"CLASSIFICATION_TYPE":"U","NORAD_CAT_ID":8330,"ELEMENT_SET_NO":999,"REV_AT_EPOCH":12094,"BSTAR":0,"MEAN_MOTION_DOT":1.03e-6,"MEAN_MOTION_DDOT":0},{"OBJECT_NAME":"COSMOS 775","OBJECT_ID":"1975-097A","EPOCH":"2026-04-25T18:57:33.032160","MEAN_MOTION":1.00219069,"ECCENTRICITY":0.0011075,"INCLINATION":2.4939,"RA_OF_ASC_NODE":262.0366,"ARG_OF_PERICENTER":179.9517,"MEAN_ANOMALY":101.5381,"EPHEMERIS_TYPE":0,"CLASSIFICATION_TYPE":"U","NORAD_CAT_ID":8357,"ELEMENT_SET_NO":999,"REV_AT_EPOCH":13123,"BSTAR":0,"MEAN_MOTION_DOT":1.23e-6,"MEAN_MOTION_DDOT":0},{"OBJECT_NAME":"GOES 1 (SMS-C)","OBJECT_ID":"1975-100A","EPOCH":"2026-04-25T14:40:23.840256","MEAN_MOTION":1.00250049,"ECCENTRICITY":0.0004157,"INCLINATION":4.7412,"RA_OF_ASC_NODE":278.1276,"ARG_OF_PERICENTER":1.6477,"MEAN_ANOMALY":27.9665,"EPHEMERIS_TYPE":0,"CLASSIFICATION_TYPE":"U","NORAD_CAT_ID":8366,"ELEMENT_SET_NO":999,"REV_AT_EPOCH":18454,"BSTAR":0,"MEAN_MOTION_DOT":2.2e-7,"MEAN_MOTION_DDOT":0},{"OBJECT_NAME":"OPS 3165 (DSP 5)","OBJECT_ID":"1975-118A","EPOCH":"2026-04-25T18:56:40.615008","MEAN_MOTION":1.00485069,"ECCENTRICITY":0.0033231,"INCLINATION":2.4265,"RA_OF_ASC_NODE":259.3129,"ARG_OF_PERICENTER":27.6425,"MEAN_ANOMALY":253.6638,"EPHEMERIS_TYPE":0,"CLASSIFICATION_TYPE":"U","NORAD_CAT_ID":8482,"ELEMENT_SET_NO":999,"REV_AT_EPOCH":2592,"BSTAR":0,"MEAN_MOTION_DOT":1.1e-6,"MEAN_MOTION_DDOT":0},{"OBJECT_NAME":"RADUGA 1","OBJECT_ID":"1975-123A","EPOCH":"2026-04-25T19:05:54.730176","MEAN_MOTION":1.0024648,"ECCENTRICITY":0.0004153,"INCLINATION":2.9366,"RA_OF_ASC_NODE":267.3334,"ARG_OF_PERICENTER":294.983,"MEAN_ANOMALY":12.5098,"EPHEMERIS_TYPE":0,"CLASSIFICATION_TYPE":"U","NORAD_CAT_ID":8513,"ELEMENT_SET_NO":999,"REV_AT_EPOCH":19428,"BSTAR":0,"MEAN_MOTION_DOT":-9.4e-7,"MEAN_MOTION_DDOT":0},{"OBJECT_NAME":"TITAN 3C TRANSTAGE R/B","OBJECT_ID":"1975-118C","EPOCH":"2026-04-25T20:07:16.324032","MEAN_MOTION":1.00549825,"ECCENTRICITY":0.0011557,"INCLINATION":2.4036,"RA_OF_ASC_NODE":259.6291,"ARG_OF_PERICENTER":213.8794,"MEAN_ANOMALY":145.7944,"EPHEMERIS_TYPE":0,"CLASSIFICATION_TYPE":"U","NORAD_CAT_ID":8516,"ELEMENT_SET_NO":999,"REV_AT_EPOCH":2525,"BSTAR":0,"MEAN_MOTION_DOT":-3.64e-6,"MEAN_MOTION_DDOT":0},{"OBJECT_NAME":"CTS","OBJECT_ID":"1976-004A","EPOCH":"2026-04-25T14:28:16.651200","MEAN_MOTION":1.00201044,"ECCENTRICITY":0.001103,"INCLINATION":4.065,"RA_OF_ASC_NODE":272.7913,"ARG_OF_PERICENTER":278.5497,"MEAN_ANOMALY":129.3889,"EPHEMERIS_TYPE":0,"CLASSIFICATION_TYPE":"U","NORAD_CAT_ID":8585,"ELEMENT_SET_NO":999,"REV_AT_EPOCH":12177,"BSTAR":0,"MEAN_MOTION_DOT":-6.7e-7,"MEAN_MOTION_DDOT":0},{"OBJECT_NAME":"INTELSAT 4A-F2","OBJECT_ID":"1976-010A","EPOCH":"2026-04-25T11:33:04.219776","MEAN_MOTION":0.99685847,"ECCENTRICITY":0.0005703,"INCLINATION":8.0121,"RA_OF_ASC_NODE":304.2609,"ARG_OF_PERICENTER":313.7417,"MEAN_ANOMALY":55.6926,"EPHEMERIS_TYPE":0,"CLASSIFICATION_TYPE":"U","NORAD_CAT_ID":8620,"ELEMENT_SET_NO":999,"REV_AT_EPOCH":62009,"BSTAR":0,"MEAN_MOTION_DOT":-2.25e-6,"MEAN_MOTION_DDOT":0},{"OBJECT_NAME":"LES-8","OBJECT_ID":"1976-023A","EPOCH":"2026-04-25T08:05:09.558816","MEAN_MOTION":1.00268792,"ECCENTRICITY":0.0031808,"INCLINATION":22.2997,"RA_OF_ASC_NODE":37.705,"ARG_OF_PERICENTER":157.6702,"MEAN_ANOMALY":35.152,"EPHEMERIS_TYPE":0,"CLASSIFICATION_TYPE":"U","NORAD_CAT_ID":8746,"ELEMENT_SET_NO":999,"REV_AT_EPOCH":12915,"BSTAR":0,"MEAN_MOTION_DOT":-1.23e-6,"MEAN_MOTION_DDOT":0},{"OBJECT_NAME":"LES-9","OBJECT_ID":"1976-023B","EPOCH":"2026-04-25T08:38:04.811424","MEAN_MOTION":1.00274493,"ECCENTRICITY":0.0023464,"INCLINATION":22.2614,"RA_OF_ASC_NODE":37.7168,"ARG_OF_PERICENTER":181.3134,"MEAN_ANOMALY":20.8472,"EPHEMERIS_TYPE":0,"CLASSIFICATION_TYPE":"U","NORAD_CAT_ID":8747,"ELEMENT_SET_NO":999,"REV_AT_EPOCH":12914,"BSTAR":0,"MEAN_MOTION_DOT":-1.3e-6,"MEAN_MOTION_DDOT":0}]
